ONEWEB-0538             
1 56047U 23043B   23318.91667824  .00000014  00000+0  00000+0 0  9997
2 56047  87.8023  57.0159 0002451 191.1855 329.1102 13.51022911 35451
ONEWEB-0546             
1 56048U 23043C   23318.91667824  .00000014  00000+0  00000+0 0  9998
2 56048  87.8089  56.9886 0003204  81.8220 312.1551 13.49601649 35444
ONEWEB-0547             
1 56049U 23043D   23318.57339109  .00000125  00000+0  27089-3 0  9996
2 56049  87.9247  72.2257 0001345 120.3452 239.7815 13.21828917 33304
ONEWEB-0548             
1 56050U 23043E   23318.91667824  .00000014  00000+0  00000+0 0  9991
2 56050  87.8042  57.0288 0003004  61.2930 270.0502 13.49994187 35442
ONEWEB-0549             
1 56051U 23043F   23318.33841989  .00000160  00000+0  35706-3 0  9991
2 56051  87.9242  72.2733 0001505  99.7356 260.3948 13.21827132 33272
ONEWEB-0550             
1 56052U 23043G   23318.55288972  .00000130  00000+0  28211-3 0  9993
2 56052  87.9251  72.2431 0001677  93.2584 266.8742 13.21825904 34213
ONEWEB-0551             
1 56053U 23043H   23318.61051849 -.00000037  00000+0 -13185-3 0  9994
2 56053  87.8992  87.4730 0001306 100.6103 259.5175 13.15554237 32076
ONEWEB-0552             
1 56054U 23043J   23318.62226658 -.00000620  00000+0 -15317-2 0  9994
2 56054  87.9248  72.2401 0001943  95.7526 264.3829 13.21827524 34227
